start=new Date('2022-09-25T00:00:00.000Z').valueOf();
sats=[{"TIME_SYSTEM":"UTC","SEMIMAJOR_AXIS":"6917.887","ECCENTRICITY":"0.00019080","TLE_LINE2":"2 52380  53.2147  84.0579 0001908  44.1355 315.9789 15.08837914 25550","FILE":"3582616","MEAN_MOTION_DOT":"-0.00000001","REV_AT_EPOCH":"2555","OBJECT_TYPE":"PAYLOAD","MEAN_MOTION":"15.08837914","CLASSIFICATION_TYPE":"U","BSTAR":"0.00001806200000","OBJECT_NAME":"STARLINK-3793","EPOCH":"2022-09-24T18:40:08.344704","TLE_LINE1":"1 52380U 22045BB  22267.77787436 -.00000001  00000-0  18062-4 0  9992","LAUNCH_DATE":"2022-04-29","PERIAPSIS":"538.432","PERIOD":"95.438","ARG_OF_PERICENTER":"44.1355","MEAN_ELEMENT_THEORY":"SGP4","CENTER_NAME":"EARTH","MEAN_ANOMALY":"315.9789","SITE":"AFETR","RA_OF_ASC_NODE":"84.0579","EPHEMERIS_TYPE":"0","RCS_SIZE":"LARGE","GP_ID":"213405624","NORAD_CAT_ID":"52380","COUNTRY_CODE":"US","INCLINATION":"53.2147","MEAN_MOTION_DDOT":"0.0000000000000","APOAPSIS":"541.072","OBJECT_ID":"2022-045BB","ELEMENT_SET_NO":"999","REF_FRAME":"TEME","DECAY_DATE":null},{"EPHEMERIS_TYPE":"0","RCS_SIZE":"LARGE","NORAD_CAT_ID":"52381","GP_ID":"213405874","RA_OF_ASC_NODE":"93.9766","REF_FRAME":"TEME","DECAY_DATE":null,"INCLINATION":"53.2187","COUNTRY_CODE":"US","ELEMENT_SET_NO":"999","OBJECT_ID":"2022-045BC","APOAPSIS":"541.038","MEAN_MOTION_DDOT":"0.0000000000000","MEAN_MOTION_DOT":"-0.00000281","REV_AT_EPOCH":"2542","TIME_SYSTEM":"UTC","SEMIMAJOR_AXIS":"6917.887","FILE":"3582616","TLE_LINE2":"2 52381  53.2187  93.9766 0001860  50.1213 309.9943 15.08837923 25420","ECCENTRICITY":"0.00018600","PERIOD":"95.438","MEAN_ELEMENT_THEORY":"SGP4","CENTER_NAME":"EARTH","MEAN_ANOMALY":"309.9943","ARG_OF_PERICENTER":"50.1213","PERIAPSIS":"538.465","SITE":"AFETR","CLASSIFICATION_TYPE":"U","BSTAR":"0.00000046799000","OBJECT_TYPE":"PAYLOAD","MEAN_MOTION":"15.08837923","LAUNCH_DATE":"2022-04-29","OBJECT_NAME":"STARLINK-3803","EPOCH":"2022-09-24T19:03:56.027808","TLE_LINE1":"1 52381U 22045BC  22267.79439847 -.00000281  00000-0  46799-6 0  9995"},{"TLE_LINE1":"1 52382U 22045BD  22267.79071769  .00001075  00000-0  85624-4 0  9990","EPOCH":"2022-09-24T18:58:38.008416","OBJECT_NAME":"STARLINK-3799","LAUNCH_DATE":"2022-04-29","MEAN_MOTION":"15.08842663","OBJECT_TYPE":"PAYLOAD","BSTAR":"0.00008562400000","CLASSIFICATION_TYPE":"U","SITE":"AFETR","PERIAPSIS":"538.415","MEAN_ELEMENT_THEORY":"SGP4","PERIOD":"95.437","CENTER_NAME":"EARTH","MEAN_ANOMALY":"317.8176","ARG_OF_PERICENTER":"42.2963","ECCENTRICITY":"0.00019110","FILE":"3582616","TLE_LINE2":"2 52382  53.2209  93.9884 0001911  42.2963 317.8176 15.08842663 25421","SEMIMAJOR_AXIS":"6917.872","TIME_SYSTEM":"UTC","REV_AT_EPOCH":"2542","MEAN_MOTION_DOT":"0.00001075","APOAPSIS":"541.059","MEAN_MOTION_DDOT":"0.0000000000000","OBJECT_ID":"2022-045BD","ELEMENT_SET_NO":"999","COUNTRY_CODE":"US","INCLINATION":"53.2209","REF_FRAME":"TEME","DECAY_DATE":null,"RA_OF_ASC_NODE":"93.9884","GP_ID":"213406125","NORAD_CAT_ID":"52382","RCS_SIZE":"LARGE","EPHEMERIS_TYPE":"0"},{"REV_AT_EPOCH":"130","MEAN_MOTION_DOT":"0.00049511","SEMIMAJOR_AXIS":"6917.985","TIME_SYSTEM":"UTC","FILE":"3582616","TLE_LINE2":"2 52383  53.2163  83.4289 0001909  46.6651 167.8409 15.08805627  1305","ECCENTRICITY":"0.00019090","MEAN_ELEMENT_THEORY":"SGP4","PERIOD":"95.440","ARG_OF_PERICENTER":"46.6651","CENTER_NAME":"EARTH","MEAN_ANOMALY":"167.8409","PERIAPSIS":"538.530","SITE":"AFETR","BSTAR":"0.00311010000000","CLASSIFICATION_TYPE":"U","MEAN_MOTION":"15.08805627","OBJECT_TYPE":"PAYLOAD","LAUNCH_DATE":"2022-04-29","TLE_LINE1":"1 52383U 22045BE  22267.91667824  .00049511  00000-0  31101-2 0  9994","EPOCH":"2022-09-24T22:00:00.999936","OBJECT_NAME":"STARLINK-3811","RCS_SIZE":"LARGE","EPHEMERIS_TYPE":"0","NORAD_CAT_ID":"52383","GP_ID":"213406876","RA_OF_ASC_NODE":"83.4289","DECAY_DATE":null,"REF_FRAME":"TEME","INCLINATION":"53.2163","COUNTRY_CODE":"US","ELEMENT_SET_NO":"999","OBJECT_ID":"2022-045BE","APOAPSIS":"541.171","MEAN_MOTION_DDOT":"0.0000000000000"},{"MEAN_MOTION_DOT":"0.00002159","REV_AT_EPOCH":"2156","ECCENTRICITY":"0.00017350","FILE":"3582188","TLE_LINE2":"2 52451  53.2183 335.2714 0001735  53.5902 306.5250 15.08838417 21566","TIME_SYSTEM":"UTC","SEMIMAJOR_AXIS":"6917.885","SITE":"AFETR","PERIAPSIS":"538.550","PERIOD":"95.438","MEAN_ELEMENT_THEORY":"SGP4","CENTER_NAME":"EARTH","ARG_OF_PERICENTER":"53.5902","MEAN_ANOMALY":"306.5250","OBJECT_NAME":"STARLINK-3870","EPOCH":"2022-09-24T12:10:35.137632","TLE_LINE1":"1 52451U 22049A   22267.50735113  .00002159  00000-0  15368-3 0  9991","LAUNCH_DATE":"2022-05-06","OBJECT_TYPE":"PAYLOAD","MEAN_MOTION":"15.08838417","CLASSIFICATION_TYPE":"U","BSTAR":"0.00015368000000","GP_ID":"213372486","NORAD_CAT_ID":"52451","EPHEMERIS_TYPE":"0","RCS_SIZE":"LARGE","RA_OF_ASC_NODE":"335.2714","REF_FRAME":"TEME","DECAY_DATE":null,"APOAPSIS":"540.950","MEAN_MOTION_DDOT":"0.0000000000000","ELEMENT_SET_NO":"999","OBJECT_ID":"2022-049A","COUNTRY_CODE":"US","INCLINATION":"53.2183"},{"SITE":"AFETR","PERIAPSIS":"538.844","CENTER_NAME":"EARTH","PERIOD":"95.437","ARG_OF_PERICENTER":"76.9757","MEAN_ELEMENT_THEORY":"SGP4","MEAN_ANOMALY":"283.1376","TLE_LINE1":"1 52452U 22049B   22267.46414128  .00001873  00000-0  13572-3 0  9994","EPOCH":"2022-09-24T11:08:21.806592","OBJECT_NAME":"STARLINK-3909","LAUNCH_DATE":"2022-05-06","MEAN_MOTION":"15.08849588","OBJECT_TYPE":"PAYLOAD","BSTAR":"0.00013572000000","CLASSIFICATION_TYPE":"U","REV_AT_EPOCH":"2171","MEAN_MOTION_DOT":"0.00001873","ECCENTRICITY":"0.00012600","FILE":"3582562","TLE_LINE2":"2 52452  53.2191 335.4691 0001260  76.9757 283.1376 15.08849588 21719","SEMIMAJOR_AXIS":"6917.851","TIME_SYSTEM":"UTC","REF_FRAME":"TEME","DECAY_DATE":null,"APOAPSIS":"540.588","MEAN_MOTION_DDOT":"0.0000000000000","ELEMENT_SET_NO":"999","OBJECT_ID":"2022-049B","COUNTRY_CODE":"US","INCLINATION":"53.2191","GP_ID":"213381859","NORAD_CAT_ID":"52452","RCS_SIZE":"LARGE","EPHEMERIS_TYPE":"0","RA_OF_ASC_NODE":"335.4691"},{"FILE":"3582188","TLE_LINE2":"2 52453  53.2191 335.3030 0001928  40.4243 319.6892 15.08856229 21564","ECCENTRICITY":"0.00019280","TIME_SYSTEM":"UTC","SEMIMAJOR_AXIS":"6917.831","MEAN_MOTION_DOT":"-0.00002534","REV_AT_EPOCH":"2156","LAUNCH_DATE":"2022-05-06","OBJECT_NAME":"STARLINK-3872","EPOCH":"2022-09-24T11:59:58.627968","TLE_LINE1":"1 52453U 22049C   22267.49998412 -.00002534  00000-0 -14107-3 0  9993","CLASSIFICATION_TYPE":"U","BSTAR":"-0.00014107000000","OBJECT_TYPE":"PAYLOAD","MEAN_MOTION":"15.08856229","SITE":"AFETR","PERIOD":"95.437","MEAN_ELEMENT_THEORY":"SGP4","ARG_OF_PERICENTER":"40.4243","CENTER_NAME":"EARTH","MEAN_ANOMALY":"319.6892","PERIAPSIS":"538.362","RA_OF_ASC_NODE":"335.3030","NORAD_CAT_ID":"52453","GP_ID":"213373388","EPHEMERIS_TYPE":"0","RCS_SIZE":"LARGE","ELEMENT_SET_NO":"999","OBJECT_ID":"2022-049C","APOAPSIS":"541.030","MEAN_MOTION_DDOT":"0.0000000000000","INCLINATION":"53.2191","COUNTRY_CODE":"US","DECAY_DATE":null,"REF_FRAME":"TEME"},{"REV_AT_EPOCH":"2156","MEAN_MOTION_DOT":"0.00006177","SEMIMAJOR_AXIS":"6917.947","TIME_SYSTEM":"UTC","ECCENTRICITY":"0.00017630","TLE_LINE2":"2 52454  53.2203 335.2914 0001763  51.1999 308.9151 15.08818129 21569","FILE":"3582188","PERIAPSIS":"538.593","CENTER_NAME":"EARTH","PERIOD":"95.439","MEAN_ELEMENT_THEORY":"SGP4","ARG_OF_PERICENTER":"51.1999","MEAN_ANOMALY":"308.9151","SITE":"AFETR","MEAN_MOTION":"15.08818129","OBJECT_TYPE":"PAYLOAD","BSTAR":"0.00040610000000","CLASSIFICATION_TYPE":"U","TLE_LINE1":"1 52454U 22049D   22267.50367295  .00006177  00000-0  40610-3 0  9998","EPOCH":"2022-09-24T12:05:17.342880","OBJECT_NAME":"STARLINK-3888","LAUNCH_DATE":"2022-05-06","RCS_SIZE":"LARGE","EPHEMERIS_TYPE":"0","GP_ID":"213372894","NORAD_CAT_ID":"52454","RA_OF_ASC_NODE":"335.2914","DECAY_DATE":null,"REF_FRAME":"TEME","COUNTRY_CODE":"US","INCLINATION":"53.2203","APOAPSIS":"541.032","MEAN_MOTION_DDOT":"0.0000000000000","OBJECT_ID":"2022-049D","ELEMENT_SET_NO":"999"},{"DECAY_DATE":null,"REF_FRAME":"TEME","COUNTRY_CODE":"US","INCLINATION":"53.2198","MEAN_MOTION_DDOT":"0.0000000000000","APOAPSIS":"540.769","ELEMENT_SET_NO":"999","OBJECT_ID":"2022-049E","EPHEMERIS_TYPE":"0","RCS_SIZE":"LARGE","GP_ID":"213372901","NORAD_CAT_ID":"52455","RA_OF_ASC_NODE":"335.6131","PERIAPSIS":"538.693","PERIOD":"95.437","ARG_OF_PERICENTER":"58.9832","CENTER_NAME":"EARTH","MEAN_ELEMENT_THEORY":"SGP4","MEAN_ANOMALY":"301.1307","SITE":"AFETR","OBJECT_TYPE":"PAYLOAD","MEAN_MOTION":"15.08844715","CLASSIFICATION_TYPE":"U","BSTAR":"0.00013483000000","OBJECT_NAME":"STARLINK-3890","TLE_LINE1":"1 52455U 22049E   22267.43102485  .00001859  00000-0  13483-3 0  9999","EPOCH":"2022-09-24T10:20:40.547040","LAUNCH_DATE":"2022-05-06","MEAN_MOTION_DOT":"0.00001859","REV_AT_EPOCH":"2155","TIME_SYSTEM":"UTC","SEMIMAJOR_AXIS":"6917.866","ECCENTRICITY":"0.00015000","FILE":"3582188","TLE_LINE2":"2 52455  53.2198 335.6131 0001500  58.9832 301.1307 15.08844715 21555"},{"RCS_SIZE":"MEDIUM","EPHEMERIS_TYPE":"0","NORAD_CAT_ID":"52456","GP_ID":"213382144","RA_OF_ASC_NODE":"335.3387","REF_FRAME":"TEME","DECAY_DATE":null,"INCLINATION":"53.2201","COUNTRY_CODE":"US","ELEMENT_SET_NO":"999","OBJECT_ID":"2022-049F","MEAN_MOTION_DDOT":"0.0000000000000","APOAPSIS":"540.978","REV_AT_EPOCH":"2172","MEAN_MOTION_DOT":"0.00005401","SEMIMAJOR_AXIS":"6917.849","TIME_SYSTEM":"UTC","FILE":"3582566","TLE_LINE2":"2 52456  53.2201 335.3387 0001826  52.6121 307.5037 15.08850162 21726","ECCENTRICITY":"0.00018260","CENTER_NAME":"EARTH","PERIOD":"95.437","MEAN_ELEMENT_THEORY":"SGP4","ARG_OF_PERICENTER":"52.6121","MEAN_ANOMALY":"307.5037","PERIAPSIS":"538.451","SITE":"AFETR","BSTAR":"0.00035707000000","CLASSIFICATION_TYPE":"U","MEAN_MOTION":"15.08850162","OBJECT_TYPE":"PAYLOAD","LAUNCH_DATE":"2022-05-06","EPOCH":"2022-09-24T11:50:46.304736","TLE_LINE1":"1 52456U 22049F   22267.49359149  .00005401  00000-0  35707-3 0  9997","OBJECT_NAME":"STARLINK-3896"}];
